0 ABS 3 (AGILA 2)
1 24901U 97042A   13280.24257233 -.00000034  00000-0  10000-3 0  9846
2 24901 002.2697 072.6511 0004999 123.6776 264.0176 01.00272920 59080
0 ABS 3 (AGILA 2)
1 24901U 97042A   13281.32245635 -.00000037  00000-0  10000-3 0  9853
2 24901 002.2719 072.6389 0005018 124.0732 293.4577 01.00272950 59093
0 ABS 3 (AGILA 2)
1 24901U 97042A   13282.32834242 -.00000040  00000-0  10000-3 0  9867
2 24901 002.2740 072.6275 0005013 124.2703 296.3825 01.00272959 59105
0 ABS 3 (AGILA 2)
1 24901U 97042A   13283.34320486 -.00000043  00000-0  10000-3 0  9874
2 24901 002.2762 072.6155 0005022 124.6277 302.3888 01.00273004 59116
0 ABS 3 (AGILA 2)
1 24901U 97042A   13286.19369797 -.00000050  00000-0  10000-3 0  9898
2 24901 002.2830 072.5785 0005059 127.0161 249.0281 01.00273173 59143
0 ABS 3 (AGILA 2)
1 24901U 97042A   13287.20021381 -.00000050  00000-0  10000-3 0  9907
2 24901 002.2845 072.5762 0005049 126.0760 253.3105 01.00273183 59152
0 ABS 3 (AGILA 2)
1 24901U 97042A   13289.11312556 -.00000049  00000-0  10000-3 0  9915
2 24901 002.2898 072.5608 0005489 129.5782 220.3533 01.00272689 59169
0 ABS 3 (AGILA 2)
1 24901U 97042A   13290.12431771 -.00000048  00000-0  10000-3 0  9929
2 24901 002.2919 072.5497 0005457 129.2731 225.6950 01.00272696 59175
0 ABS 3 (AGILA 2)
1 24901U 97042A   13291.19044987 -.00000046  00000-0  10000-3 0  9935
2 24901 002.2948 072.5394 0005931 132.0976 247.7398 01.00272664 59191
0 ABS 3 (AGILA 2)
1 24901U 97042A   13291.32316531 -.00000046  00000-0  10000-3 0  9948
2 24901 002.2950 072.5393 0005867 133.1569 294.5841 01.00272472 59191
0 ABS 3 (AGILA 2)
1 24901U 97042A   13293.22555292 -.00000042  00000-0  10000-3 0  9955
2 24901 002.2989 072.5178 0005899 133.3497 261.1487 01.00272612 59216
0 ABS 3 (AGILA 2)
1 24901U 97042A   13294.23491698 -.00000041  00000-0  10000-3 0  9966
2 24901 002.3010 072.5063 0005911 133.4756 265.4010 01.00272684 59228
